{"type": "FeatureCollection", "features": [ {"type": "Feature", "properties": {"norad_id": 35793, "name": "COSMOS 2251 DEB", "group": "cosmos-2251-debris", "lat": 5.801489887562804, "lon": -101.98572639386478, "alt_km": 634.1082569235577, "timestamp": "2025-12-02T19:35:50.951270+00:00", "meta": {"OBJECT_NAME": "COSMOS 2251 DEB", "OBJECT_ID": "1993-036ASP", "EPOCH": "2025-11-29T00:24:11.235744", "MEAN_MOTION": 14.78106278, "ECCENTRICITY": 0.00040307, "INCLINATION": 74.0402, "RA_OF_ASC_NODE": 87.138, "ARG_OF_PERICENTER": 165.1184, "MEAN_ANOMALY": 317.1346, "EPHEMERIS_TYPE": 0, "CLASSIFICATION_TYPE": "U", "NORAD_CAT_ID": 35793, "ELEMENT_SET_NO": 999, "REV_AT_EPOCH": 65594, "BSTAR": 0.0021008898, "MEAN_MOTION_DOT": 0.00015203, "MEAN_MOTION_DDOT": 0}, "tle": {"line1": "1 35793U 93036ASP 25333.01679671  .00015203  00000+0  21009-2 0  9995", "line2": "2 35793  74.0402  87.1380 0004030 165.1184 317.1346 14.78106278655944"}}, "geometry": {"type": "Point", "coordinates": [-101.98572639386478, 5.801489887562804]}}, {"type": "Feature", "properties": {"norad_id": 35824, "name": "COSMOS 2251 DEB", "group": "cosmos-2251-debris", "lat": 9.672044548128472, "lon": -116.98485942009273, "alt_km": 759.3307914140396, "timestamp": "2025-12-02T19:35:50.951280+00:00", "meta": {"OBJECT_NAME": "COSMOS 2251 DEB", "OBJECT_ID": "1993-036ASW", "EPOCH": "2025-12-01T23:46:09.551712", "MEAN_MOTION": 13.88347009, "ECCENTRICITY": 0.02504054, "INCLINATION": 73.846, "RA_OF_ASC_NODE": 67.2659, "ARG_OF_PERICENTER": 155.2695, "MEAN_ANOMALY": 206.0685, "EPHEMERIS_TYPE": 0, "CLASSIFICATION_TYPE": "U", "NORAD_CAT_ID": 35824, "ELEMENT_SET_NO": 999, "REV_AT_EPOCH": 84078, "BSTAR": 0.0016452195, "MEAN_MOTION_DOT": 2.507e-05, "MEAN_MOTION_DDOT": 0}, "tle": {"line1": "1 35824U 93036ASW 25335.99038833  .00002507  00000+0  16452-2 0  9997", "line2": "2 35824  73.8460  67.2659 0250405 155.2695 206.0685 13.88347009840783"}}, "geometry": {"type": "Point", "coordinates": [-116.98485942009273, 9.672044548128472]}}, {"type": "Feature", "properties": {"norad_id": 35825, "name": "COSMOS 2251 DEB", "group": "cosmos-2251-debris", "lat": 73.84603717248888, "lon": -121.57869172645304, "alt_km": 1245.3222532483624, "timestamp": "2025-12-02T19:35:50.951291+00:00", "meta": {"OBJECT_NAME": "COSMOS 2251 DEB", "OBJECT_ID": "1993-036ASX", "EPOCH": "2025-11-18T20:38:01.180896", "MEAN_MOTION": 13.70825357, "ECCENTRICITY": 0.03535711, "INCLINATION": 74.1138, "RA_OF_ASC_NODE": 181.8907, "ARG_OF_PERICENTER": 283.1782, "MEAN_ANOMALY": 73.0118, "EPHEMERIS_TYPE": 0, "CLASSIFICATION_TYPE": "U", "NORAD_CAT_ID": 35825, "ELEMENT_SET_NO": 999, "REV_AT_EPOCH": 82181, "BSTAR": 0.0013809564, "MEAN_MOTION_DOT": 1.891e-05, "MEAN_MOTION_DDOT": 0}, "tle": {"line1": "1 35825U 93036ASX 25322.85973589  .00001891  00000+0  13810-2 0  9995", "line2": "2 35825  74.1138 181.8907 0353571 283.1782  73.0118 13.70825357821819"}}, "geometry": {"type": "Point", "coordinates": [-121.57869172645304, 73.84603717248888]}}, {"type": "Feature", "properties": {"norad_id": 35829, "name": "COSMOS 2251 DEB", "group": "cosmos-2251-debris", "lat": 1.3539357954500648, "lon": -62.14275302644387, "alt_km": 639.459429242188, "timestamp": "2025-12-02T19:35:50.951301+00:00", "meta": {"OBJECT_NAME": "COSMOS 2251 DEB", "OBJECT_ID": "1993-036ATB", "EPOCH": "2025-11-30T16:21:21.662208", "MEAN_MOTION": 14.75731719, "ECCENTRICITY": 0.00079875, "INCLINATION": 74.0228, "RA_OF_ASC_NODE": 122.4242, "ARG_OF_PERICENTER": 184.1441, "MEAN_ANOMALY": 175.9668, "EPHEMERIS_TYPE": 0, "CLASSIFICATION_TYPE": "U", "NORAD_CAT_ID": 35829, "ELEMENT_SET_NO": 999, "REV_AT_EPOCH": 87597, "BSTAR": 0.0025962161, "MEAN_MOTION_DOT": 0.00017791, "MEAN_MOTION_DDOT": 0}, "tle": {"line1": "1 35829U 93036ATB 25334.68150072  .00017791  00000+0  25962-2 0  9994", "line2": "2 35829  74.0228 122.4242 0007987 184.1441 175.9668 14.75731719875976"}}, "geometry": {"type": "Point", "coordinates": [-62.14275302644387, 1.3539357954500648]}}, {"type": "Feature", "properties": {"norad_id": 35830, "name": "COSMOS 2251 DEB", "group": "cosmos-2251-debris", "lat": 0.23374771492187443, "lon": 104.4281438672178, "alt_km": 790.6509682177075, "timestamp": "2025-12-02T19:35:50.951312+00:00", "meta": {"OBJECT_NAME": "COSMOS 2251 DEB", "OBJECT_ID": "1993-036ATC", "EPOCH": "2025-12-01T03:57:40.475520", "MEAN_MOTION": 14.2387799, "ECCENTRICITY": 0.01234559, "INCLINATION": 73.8619, "RA_OF_ASC_NODE": 287.4996, "ARG_OF_PERICENTER": 257.8622, "MEAN_ANOMALY": 100.8671, "EPHEMERIS_TYPE": 0, "CLASSIFICATION_TYPE": "U", "NORAD_CAT_ID": 35830, "ELEMENT_SET_NO": 999, "REV_AT_EPOCH": 61099, "BSTAR": 0.00092751736, "MEAN_MOTION_DOT": 2.272e-05, "MEAN_MOTION_DDOT": 0}, "tle": {"line1": "1 35830U 93036ATC 25335.16505180  .00002272  00000+0  92752-3 0  9994", "line2": "2 35830  73.8619 287.4996 0123455 257.8622 100.8671 14.23877990610990"}}, "geometry": {"type": "Point", "coordinates": [104.4281438672178, 0.23374771492187443]}}, {"type": "Feature", "properties": {"norad_id": 35834, "name": "COSMOS 2251 DEB", "group": "cosmos-2251-debris", "lat": 47.20324854559507, "lon": -19.66118270514024, "alt_km": 823.3357792488086, "timestamp": "2025-12-02T19:35:50.951322+00:00", "meta": {"OBJECT_NAME": "COSMOS 2251 DEB", "OBJECT_ID": "1993-036ATG", "EPOCH": "2025-12-01T16:59:11.672736", "MEAN_MOTION": 14.12964835, "ECCENTRICITY": 0.01090429, "INCLINATION": 73.9309, "RA_OF_ASC_NODE": 324.1737, "ARG_OF_PERICENTER": 126.9375, "MEAN_ANOMALY": 46.2804, "EPHEMERIS_TYPE": 0, "CLASSIFICATION_TYPE": "U", "NORAD_CAT_ID": 35834, "ELEMENT_SET_NO": 999, "REV_AT_EPOCH": 66107, "BSTAR": 0.00011772733, "MEAN_MOTION_DOT": 2.07e-06, "MEAN_MOTION_DDOT": 0}, "tle": {"line1": "1 35834U 93036ATG 25335.70777399  .00000207  00000+0  11773-3 0  9991", "line2": "2 35834  73.9309 324.1737 0109042 126.9375  46.2804 14.12964835661079"}}, "geometry": {"type": "Point", "coordinates": [-19.66118270514024, 47.20324854559507]}}, {"type": "Feature", "properties": {"norad_id": 35835, "name": "COSMOS 2251 DEB", "group": "cosmos-2251-debris", "lat": -20.358795407211986, "lon": -80.96404606476206, "alt_km": 953.8960411811722, "timestamp": "2025-12-02T19:35:50.951333+00:00", "meta": {"OBJECT_NAME": "COSMOS 2251 DEB", "OBJECT_ID": "1993-036ATH", "EPOCH": "2025-11-23T15:11:23.439552", "MEAN_MOTION": 13.82767918, "ECCENTRICITY": 0.02888493, "INCLINATION": 74.0623, "RA_OF_ASC_NODE": 300.5555, "ARG_OF_PERICENTER": 86.7647, "MEAN_ANOMALY": 276.6477, "EPHEMERIS_TYPE": 0, "CLASSIFICATION_TYPE": "U", "NORAD_CAT_ID": 35835, "ELEMENT_SET_NO": 999, "REV_AT_EPOCH": 61435, "BSTAR": 0.00097699609, "MEAN_MOTION_DOT": 1.444e-05, "MEAN_MOTION_DDOT": 0}, "tle": {"line1": "1 35835U 93036ATH 25327.63291018  .00001444  00000+0  97700-3 0  9992", "line2": "2 35835  74.0623 300.5555 0288849  86.7647 276.6477 13.82767918614358"}}, "geometry": {"type": "Point", "coordinates": [-80.96404606476206, -20.358795407211986]}}, {"type": "Feature", "properties": {"norad_id": 35836, "name": "COSMOS 2251 DEB", "group": "cosmos-2251-debris", "lat": -55.250565960503494, "lon": 167.8246648777843, "alt_km": 654.246610028099, "timestamp": "2025-12-02T19:35:50.951343+00:00", "meta": {"OBJECT_NAME": "COSMOS 2251 DEB", "OBJECT_ID": "1993-036ATJ", "EPOCH": "2025-12-02T08:26:07.027008", "MEAN_MOTION": 14.70615264, "ECCENTRICITY": 0.0025061, "INCLINATION": 74.032, "RA_OF_ASC_NODE": 193.1051, "ARG_OF_PERICENTER": 253.0154, "MEAN_ANOMALY": 106.8271, "EPHEMERIS_TYPE": 0, "CLASSIFICATION_TYPE": "U", "NORAD_CAT_ID": 35836, "ELEMENT_SET_NO": 999, "REV_AT_EPOCH": 63367, "BSTAR": 0.0018954, "MEAN_MOTION_DOT": 0.00011572, "MEAN_MOTION_DDOT": 0}, "tle": {"line1": "1 35836U 93036ATJ 25336.35147022  .00011572  00000+0  18954-2 0  9993", "line2": "2 35836  74.0320 193.1051 0025061 253.0154 106.8271 14.70615264633673"}}, "geometry": {"type": "Point", "coordinates": [167.8246648777843, -55.250565960503494]}}, {"type": "Feature", "properties": {"norad_id": 35837, "name": "COSMOS 2251 DEB", "group": "cosmos-2251-debris", "lat": 73.21205600544715, "lon": -31.443211379558072, "alt_km": 817.258686126308, "timestamp": "2025-12-02T19:35:50.951353+00:00", "meta": {"OBJECT_NAME": "COSMOS 2251 DEB", "OBJECT_ID": "1993-036ATK", "EPOCH": "2025-12-01T23:51:57.289248", "MEAN_MOTION": 13.6337538, "ECCENTRICITY": 0.04221684, "INCLINATION": 73.722, "RA_OF_ASC_NODE": 225.5014, "ARG_OF_PERICENTER": 147.9905, "MEAN_ANOMALY": 236.1342, "EPHEMERIS_TYPE": 0, "CLASSIFICATION_TYPE": "U", "NORAD_CAT_ID": 35837, "ELEMENT_SET_NO": 999, "REV_AT_EPOCH": 57830, "BSTAR": 0.0015598764, "MEAN_MOTION_DOT": 2.227e-05, "MEAN_MOTION_DDOT": 0}, "tle": {"line1": "1 35837U 93036ATK 25335.99441307  .00002227  00000+0  15599-2 0  9995", "line2": "2 35837  73.7220 225.5014 0422168 147.9905 236.1342 13.63375380578309"}}, "geometry": {"type": "Point", "coordinates": [-31.443211379558072, 73.21205600544715]}}, {"type": "Feature", "properties": {"norad_id": 35839, "name": "COSMOS 2251 DEB", "group": "cosmos-2251-debris", "lat": -4.878294338753188, "lon": -16.375005526810572, "alt_km": 431.51468356367695, "timestamp": "2025-12-02T19:35:50.951364+00:00", "meta": {"OBJECT_NAME": "COSMOS 2251 DEB", "OBJECT_ID": "1993-036ATM", "EPOCH": "2025-12-01T01:39:10.982304", "MEAN_MOTION": 15.44448514, "ECCENTRICITY": 0.00041721, "INCLINATION": 74.2115, "RA_OF_ASC_NODE": 348.7704, "ARG_OF_PERICENTER": 350.3118, "MEAN_ANOMALY": 9.8012, "EPHEMERIS_TYPE": 0, "CLASSIFICATION_TYPE": "U", "NORAD_CAT_ID": 35839, "ELEMENT_SET_NO": 999, "REV_AT_EPOCH": 88387, "BSTAR": 0.0041618177, "MEAN_MOTION_DOT": 0.00197705, "MEAN_MOTION_DDOT": 0}, "tle": {"line1": "1 35839U 93036ATM 25335.06887711  .00197705  00000+0  41618-2 0  9995", "line2": "2 35839  74.2115 348.7704 0004172 350.3118   9.8012 15.44448514883872"}}, "geometry": {"type": "Point", "coordinates": [-16.375005526810572, -4.878294338753188]}}]}